[{"OBJECT_NAME":"STARLINK-4006","OBJECT_ID":"2022-053W","EPOCH":"2026-03-09T12:10:24.309984","MEAN_MOTION":15.08844691,"ECCENTRICITY":0.00012152,"INCLINATION":53.2171,"RA_OF_ASC_NODE":154.9392,"ARG_OF_PERICENTER":90.7895,"MEAN_ANOMALY":269.3236,"EPHEMERIS_TYPE":0,"CLASSIFICATION_TYPE":"U","NORAD_CAT_ID":52676,"ELEMENT_SET_NO":999,"REV_AT_EPOCH":21101,"BSTAR":-4.2533277e-5,"MEAN_MOTION_DOT":-9.65e-6,"MEAN_MOTION_DDOT":0},{"OBJECT_NAME":"IRIDIUM 33 DEB","OBJECT_ID":"1997-051ACD","EPOCH":"2026-02-15T04:06:14.442336","MEAN_MOTION":15.0282309,"ECCENTRICITY":0.00183243,"INCLINATION":86.3384,"RA_OF_ASC_NODE":302.6959,"ARG_OF_PERICENTER":121.5358,"MEAN_ANOMALY":29.3036,"EPHEMERIS_TYPE":0,"CLASSIFICATION_TYPE":"U","NORAD_CAT_ID":46971,"ELEMENT_SET_NO":999,"REV_AT_EPOCH":65196,"BSTAR":0.0024316654,"MEAN_MOTION_DOT":0.00032805,"MEAN_MOTION_DDOT":0}]
